{
  "type": "FeatureCollection",
  "_comment": "Paths surveyed from USDA NAIP orthophotography (fl_m_3008637_sw_16_060_20220123) via Microsoft Planetary Computer, registered to this venue's OpenStreetMap geometry. Folded in by the universal builder via data/venues/big-kahunas.sources.json.",
  "properties": {
    "imagery": {
      "by": "aerial",
      "source": "naip-fl-20220123",
      "provider": "USDA FPAC-BC-GEO NAIP",
      "served_via": "Microsoft Planetary Computer",
      "capture_date": "2022-01-23",
      "gsd_m": 0.6
    }
  },
  "features": [
    {
      "type": "Feature",
      "properties": {
        "kind": "path",
        "n": "Wave pool deck to midway",
        "src": {
          "by": "aerial",
          "source": "naip-fl-20220123",
          "note": "Concrete deck along the wave pool east edge; OSM has the pool but not this link to the central midway. Re-stamped from NAIP after okaloosa-ortho-2025 was inadmissible."
        }
      },
      "geometry": {
        "type": "LineString",
        "coordinates": [
          [-86.47311, 30.38781],
          [-86.47302, 30.38805],
          [-86.47292, 30.38828],
          [-86.47285, 30.38845]
        ]
      }
    },
    {
      "type": "Feature",
      "properties": {
        "kind": "path",
        "n": "Adventure Park boardwalk",
        "src": {
          "by": "aerial",
          "source": "naip-fl-20220123",
          "note": "Raised walk from the mini-golf plaza to the ticket plaza; visible on NAIP orthophoto, absent from OSM footways."
        }
      },
      "geometry": {
        "type": "LineString",
        "coordinates": [
          [-86.4727, 30.38794],
          [-86.47258, 30.38825],
          [-86.47248, 30.38855],
          [-86.47242, 30.38872]
        ]
      }
    },
    {
      "type": "Feature",
      "properties": {
        "kind": "path",
        "n": "Buccaneer Cove bridge",
        "src": {
          "by": "aerial",
          "source": "naip-fl-20220123",
          "note": "Short bridge from the south-west midway into Buccaneer Cove; drawn on NAIP orthophoto, missing from OSM."
        }
      },
      "geometry": {
        "type": "LineString",
        "coordinates": [
          [-86.47384, 30.38834],
          [-86.47395, 30.38812],
          [-86.47402, 30.38792]
        ]
      }
    }
  ]
}
